{"type": "FeatureCollection", "features": [ {"type": "Feature", "properties": {"norad_id": 66929, "name": "STARLINK-36169", "group": "last-30-days", "lat": -6.55556958602267, "lon": -169.55328967308392, "alt_km": 349.04924557386585, "timestamp": "2025-12-21T16:47:53.451467+00:00", "meta": {"OBJECT_NAME": "STARLINK-36169", "OBJECT_ID": "2025-286E", "EPOCH": "2025-12-21T12:00:02.000160", "MEAN_MOTION": 15.74143781, "ECCENTRICITY": 0.0001035, "INCLINATION": 53.1578, "RA_OF_ASC_NODE": 6.496, "ARG_OF_PERICENTER": 71.5652, "MEAN_ANOMALY": 63.0379, "EPHEMERIS_TYPE": 0, "CLASSIFICATION_TYPE": "U", "NORAD_CAT_ID": 66929, "ELEMENT_SET_NO": 999, "REV_AT_EPOCH": 339, "BSTAR": 0.00032044, "MEAN_MOTION_DOT": 0.00046467, "MEAN_MOTION_DDOT": 0}, "tle": {"line1": "1 66929U 25286E   25355.50002315  .00046467  00000+0  32044-3 0  9993", "line2": "2 66929  53.1578   6.4960 0001035  71.5652  63.0379 15.74143781  3397"}}, "geometry": {"type": "Point", "coordinates": [-169.55328967308392, -6.55556958602267]}}, {"type": "Feature", "properties": {"norad_id": 66930, "name": "STARLINK-36206", "group": "last-30-days", "lat": -8.081832344695066, "lon": -168.38819420728686, "alt_km": 349.2134329028495, "timestamp": "2025-12-21T16:47:53.451476+00:00", "meta": {"OBJECT_NAME": "STARLINK-36206", "OBJECT_ID": "2025-286F", "EPOCH": "2025-12-21T12:00:02.000160", "MEAN_MOTION": 15.74149346, "ECCENTRICITY": 0.000115, "INCLINATION": 53.1577, "RA_OF_ASC_NODE": 6.4923, "ARG_OF_PERICENTER": 75.7189, "MEAN_ANOMALY": 60.7954, "EPHEMERIS_TYPE": 0, "CLASSIFICATION_TYPE": "U", "NORAD_CAT_ID": 66930, "ELEMENT_SET_NO": 999, "REV_AT_EPOCH": 340, "BSTAR": 0.0003314, "MEAN_MOTION_DOT": 0.00048099, "MEAN_MOTION_DDOT": 0}, "tle": {"line1": "1 66930U 25286F   25355.50002315  .00048099  00000+0  33140-3 0  9996", "line2": "2 66930  53.1577   6.4923 0001150  75.7189  60.7954 15.74149346  3404"}}, "geometry": {"type": "Point", "coordinates": [-168.38819420728686, -8.081832344695066]}}, {"type": "Feature", "properties": {"norad_id": 66931, "name": "STARLINK-36130", "group": "last-30-days", "lat": -9.602788866561472, "lon": -167.2161402534172, "alt_km": 349.362942111592, "timestamp": "2025-12-21T16:47:53.451486+00:00", "meta": {"OBJECT_NAME": "STARLINK-36130", "OBJECT_ID": "2025-286G", "EPOCH": "2025-12-21T12:00:02.000160", "MEAN_MOTION": 15.74148954, "ECCENTRICITY": 0.0001012, "INCLINATION": 53.1576, "RA_OF_ASC_NODE": 6.4882, "ARG_OF_PERICENTER": 75.9125, "MEAN_ANOMALY": 62.5178, "EPHEMERIS_TYPE": 0, "CLASSIFICATION_TYPE": "U", "NORAD_CAT_ID": 66931, "ELEMENT_SET_NO": 999, "REV_AT_EPOCH": 340, "BSTAR": 0.00034903, "MEAN_MOTION_DOT": 0.00050706, "MEAN_MOTION_DDOT": 0}, "tle": {"line1": "1 66931U 25286G   25355.50002315  .00050706  00000+0  34903-3 0  9993", "line2": "2 66931  53.1576   6.4882 0001012  75.9125  62.5178 15.74148954  3409"}}, "geometry": {"type": "Point", "coordinates": [-167.2161402534172, -9.602788866561472]}}, {"type": "Feature", "properties": {"norad_id": 66932, "name": "STARLINK-36177", "group": "last-30-days", "lat": -11.119023205501334, "lon": -166.0339583380651, "alt_km": 349.4741631487577, "timestamp": "2025-12-21T16:47:53.451496+00:00", "meta": {"OBJECT_NAME": "STARLINK-36177", "OBJECT_ID": "2025-286H", "EPOCH": "2025-12-21T12:00:02.000160", "MEAN_MOTION": 15.74137814, "ECCENTRICITY": 0.0001028, "INCLINATION": 53.1576, "RA_OF_ASC_NODE": 6.4842, "ARG_OF_PERICENTER": 84.0997, "MEAN_ANOMALY": 56.2492, "EPHEMERIS_TYPE": 0, "CLASSIFICATION_TYPE": "U", "NORAD_CAT_ID": 66932, "ELEMENT_SET_NO": 999, "REV_AT_EPOCH": 340, "BSTAR": 0.00046714, "MEAN_MOTION_DOT": 0.00068187, "MEAN_MOTION_DDOT": 0}, "tle": {"line1": "1 66932U 25286H   25355.50002315  .00068187  00000+0  46714-3 0  9999", "line2": "2 66932  53.1576   6.4842 0001028  84.0997  56.2492 15.74137814  3403"}}, "geometry": {"type": "Point", "coordinates": [-166.0339583380651, -11.119023205501334]}}, {"type": "Feature", "properties": {"norad_id": 66933, "name": "STARLINK-36157", "group": "last-30-days", "lat": -12.63169215451561, "lon": -164.8386099547408, "alt_km": 349.73093904327743, "timestamp": "2025-12-21T16:47:53.451506+00:00", "meta": {"OBJECT_NAME": "STARLINK-36157", "OBJECT_ID": "2025-286J", "EPOCH": "2025-12-21T12:00:02.000160", "MEAN_MOTION": 15.74150585, "ECCENTRICITY": 8.54e-05, "INCLINATION": 53.1576, "RA_OF_ASC_NODE": 6.4801, "ARG_OF_PERICENTER": 69.8153, "MEAN_ANOMALY": 72.4468, "EPHEMERIS_TYPE": 0, "CLASSIFICATION_TYPE": "U", "NORAD_CAT_ID": 66933, "ELEMENT_SET_NO": 999, "REV_AT_EPOCH": 340, "BSTAR": 0.00027524, "MEAN_MOTION_DOT": 0.00039803, "MEAN_MOTION_DDOT": 0}, "tle": {"line1": "1 66933U 25286J   25355.50002315  .00039803  00000+0  27524-3 0  9991", "line2": "2 66933  53.1576   6.4801 0000854  69.8153  72.4468 15.74150585  3403"}}, "geometry": {"type": "Point", "coordinates": [-164.8386099547408, -12.63169215451561]}}, {"type": "Feature", "properties": {"norad_id": 66934, "name": "STARLINK-36153", "group": "last-30-days", "lat": -14.136943702085363, "lon": -163.63067521517507, "alt_km": 349.72204572691317, "timestamp": "2025-12-21T16:47:53.451516+00:00", "meta": {"OBJECT_NAME": "STARLINK-36153", "OBJECT_ID": "2025-286K", "EPOCH": "2025-12-21T12:00:02.000160", "MEAN_MOTION": 15.74145035, "ECCENTRICITY": 7.49e-05, "INCLINATION": 53.1575, "RA_OF_ASC_NODE": 6.4759, "ARG_OF_PERICENTER": 87.136, "MEAN_ANOMALY": 57.0408, "EPHEMERIS_TYPE": 0, "CLASSIFICATION_TYPE": "U", "NORAD_CAT_ID": 66934, "ELEMENT_SET_NO": 999, "REV_AT_EPOCH": 340, "BSTAR": 0.00037399, "MEAN_MOTION_DOT": 0.00054392, "MEAN_MOTION_DDOT": 0}, "tle": {"line1": "1 66934U 25286K   25355.50002315  .00054392  00000+0  37399-3 0  9993", "line2": "2 66934  53.1575   6.4759 0000749  87.1360  57.0408 15.74145035  3408"}}, "geometry": {"type": "Point", "coordinates": [-163.63067521517507, -14.136943702085363]}}, {"type": "Feature", "properties": {"norad_id": 66935, "name": "STARLINK-36127", "group": "last-30-days", "lat": -15.648302717271953, "lon": -162.39612522868265, "alt_km": 350.0499051960878, "timestamp": "2025-12-21T16:47:53.451531+00:00", "meta": {"OBJECT_NAME": "STARLINK-36127", "OBJECT_ID": "2025-286L", "EPOCH": "2025-12-21T12:00:02.000160", "MEAN_MOTION": 15.74150591, "ECCENTRICITY": 0.000124, "INCLINATION": 53.1575, "RA_OF_ASC_NODE": 6.4721, "ARG_OF_PERICENTER": 83.9867, "MEAN_ANOMALY": 62.1116, "EPHEMERIS_TYPE": 0, "CLASSIFICATION_TYPE": "U", "NORAD_CAT_ID": 66935, "ELEMENT_SET_NO": 999, "REV_AT_EPOCH": 340, "BSTAR": 0.00029502, "MEAN_MOTION_DOT": 0.00042725, "MEAN_MOTION_DDOT": 0}, "tle": {"line1": "1 66935U 25286L   25355.50002315  .00042725  00000+0  29502-3 0  9998", "line2": "2 66935  53.1575   6.4721 0001240  83.9867  62.1116 15.74150591  3407"}}, "geometry": {"type": "Point", "coordinates": [-162.39612522868265, -15.648302717271953]}}, {"type": "Feature", "properties": {"norad_id": 66936, "name": "STARLINK-36160", "group": "last-30-days", "lat": -17.14112964568277, "lon": -161.15285121892057, "alt_km": 350.2001720716444, "timestamp": "2025-12-21T16:47:53.451545+00:00", "meta": {"OBJECT_NAME": "STARLINK-36160", "OBJECT_ID": "2025-286M", "EPOCH": "2025-12-21T12:00:02.000160", "MEAN_MOTION": 15.74144968, "ECCENTRICITY": 0.0001136, "INCLINATION": 53.1577, "RA_OF_ASC_NODE": 6.4684, "ARG_OF_PERICENTER": 83.1052, "MEAN_ANOMALY": 64.9111, "EPHEMERIS_TYPE": 0, "CLASSIFICATION_TYPE": "U", "NORAD_CAT_ID": 66936, "ELEMENT_SET_NO": 999, "REV_AT_EPOCH": 340, "BSTAR": 0.00036064, "MEAN_MOTION_DOT": 0.00052416, "MEAN_MOTION_DDOT": 0}, "tle": {"line1": "1 66936U 25286M   25355.50002315  .00052416  00000+0  36064-3 0  9998", "line2": "2 66936  53.1577   6.4684 0001136  83.1052  64.9111 15.74144968  3406"}}, "geometry": {"type": "Point", "coordinates": [-161.15285121892057, -17.14112964568277]}}, {"type": "Feature", "properties": {"norad_id": 66937, "name": "STARLINK-36165", "group": "last-30-days", "lat": -18.621187197976415, "lon": -159.8941434278087, "alt_km": 350.2165047711396, "timestamp": "2025-12-21T16:47:53.451557+00:00", "meta": {"OBJECT_NAME": "STARLINK-36165", "OBJECT_ID": "2025-286N", "EPOCH": "2025-12-21T12:00:02.000160", "MEAN_MOTION": 15.74180624, "ECCENTRICITY": 8.95e-05, "INCLINATION": 53.1576, "RA_OF_ASC_NODE": 6.4642, "ARG_OF_PERICENTER": 85.1003, "MEAN_ANOMALY": 64.8082, "EPHEMERIS_TYPE": 0, "CLASSIFICATION_TYPE": "U", "NORAD_CAT_ID": 66937, "ELEMENT_SET_NO": 999, "REV_AT_EPOCH": 340, "BSTAR": -9.8528e-06, "MEAN_MOTION_DOT": -2.071e-05, "MEAN_MOTION_DDOT": 0}, "tle": {"line1": "1 66937U 25286N   25355.50002315 -.00002071  00000+0 -98528-5 0  9998", "line2": "2 66937  53.1576   6.4642 0000895  85.1003  64.8082 15.74180624  3404"}}, "geometry": {"type": "Point", "coordinates": [-159.8941434278087, -18.621187197976415]}}, {"type": "Feature", "properties": {"norad_id": 66938, "name": "STARLINK-36155", "group": "last-30-days", "lat": -20.10698603920403, "lon": -158.6008828687225, "alt_km": 350.30880901284763, "timestamp": "2025-12-21T16:47:53.451568+00:00", "meta": {"OBJECT_NAME": "STARLINK-36155", "OBJECT_ID": "2025-286P", "EPOCH": "2025-12-21T12:00:02.000160", "MEAN_MOTION": 15.74144666, "ECCENTRICITY": 8.55e-05, "INCLINATION": 53.1575, "RA_OF_ASC_NODE": 6.4597, "ARG_OF_PERICENTER": 94.2241, "MEAN_ANOMALY": 57.6289, "EPHEMERIS_TYPE": 0, "CLASSIFICATION_TYPE": "U", "NORAD_CAT_ID": 66938, "ELEMENT_SET_NO": 999, "REV_AT_EPOCH": 340, "BSTAR": 0.00035793, "MEAN_MOTION_DOT": 0.00052013, "MEAN_MOTION_DDOT": 0}, "tle": {"line1": "1 66938U 25286P   25355.50002315  .00052013  00000+0  35793-3 0  9991", "line2": "2 66938  53.1575   6.4597 0000855  94.2241  57.6289 15.74144666  3409"}}, "geometry": {"type": "Point", "coordinates": [-158.6008828687225, -20.10698603920403]}}]}